[{"OBJECT_NAME":"JILIN-1 09","OBJECT_ID":"2019-005B","EPOCH":"2026-03-09T21:49:20.163360","MEAN_MOTION":15.19514186,"ECCENTRICITY":0.00037399,"INCLINATION":97.4701,"RA_OF_ASC_NODE":164.8178,"ARG_OF_PERICENTER":87.3947,"MEAN_ANOMALY":272.7716,"EPHEMERIS_TYPE":0,"CLASSIFICATION_TYPE":"U","NORAD_CAT_ID":43943,"ELEMENT_SET_NO":999,"REV_AT_EPOCH":39406,"BSTAR":0.00030815291,"MEAN_MOTION_DOT":6.478e-5,"MEAN_MOTION_DDOT":0},{"OBJECT_NAME":"LIZZIESAT-3 (LS-3)","OBJECT_ID":"2025-052Z","EPOCH":"2026-03-09T23:14:46.856832","MEAN_MOTION":15.20716998,"ECCENTRICITY":0.00070924,"INCLINATION":97.4033,"RA_OF_ASC_NODE":322.5624,"ARG_OF_PERICENTER":136.4425,"MEAN_ANOMALY":223.7371,"EPHEMERIS_TYPE":0,"CLASSIFICATION_TYPE":"U","NORAD_CAT_ID":63233,"ELEMENT_SET_NO":999,"REV_AT_EPOCH":5472,"BSTAR":0.00032646441,"MEAN_MOTION_DOT":7.117e-5,"MEAN_MOTION_DDOT":0}]
